<?xml version="1.0" encoding="UTF-8"?>
<kml xmlns="http://www.opengis.net/kml/2.2">
<Document>
  <name>US-3313</name>

  <Style id="activation-site">
    <IconStyle><color>ff00cc00</color><scale>1.4</scale></IconStyle>
  </Style>
  <Style id="contact">
    <IconStyle><color>ffff7800</color><scale>0.9</scale></IconStyle>
  </Style>
  <Style id="line">
    <LineStyle><color>997800ff</color><width>1.5</width></LineStyle>
  </Style>

  <Folder><name>Activation Site</name>
  <Placemark>
    <name>US-3313</name>
    <styleUrl>#activation-site</styleUrl>
    <Point>
      <coordinates>-83.13833333333334,42.47168333333333,0</coordinates>
    </Point>
  </Placemark>
  </Folder>

  <Folder><name>Contacts</name>
  <Placemark>
    <name>AC1RH</name>
    <description><![CDATA[<b>Date:</b> 2026-05-20<br/><b>Time:</b> 14:06Z<br/><b>Band:</b> 40m<br/><b>Mode:</b> SSB<br/><b>RST Sent:</b> 55<br/><b>RST Rcvd:</b> 43<br/><b>POTA/SOTA:</b> US-8023]]></description>
    <styleUrl>#contact</styleUrl>
    <Point>
      <coordinates>-71.3359,42.9006,0</coordinates>
    </Point>
  </Placemark>
  <Placemark>
    <name>K3WD</name>
    <description><![CDATA[<b>Date:</b> 2026-05-20<br/><b>Time:</b> 14:20Z<br/><b>Band:</b> 40m<br/><b>Mode:</b> SSB<br/><b>RST Sent:</b> 55<br/><b>RST Rcvd:</b> 57]]></description>
    <styleUrl>#contact</styleUrl>
    <Point>
      <coordinates>-77.655067,39.281333,0</coordinates>
    </Point>
  </Placemark>
  <Placemark>
    <name>K9ICP</name>
    <description><![CDATA[<b>Date:</b> 2026-05-20<br/><b>Time:</b> 14:22Z<br/><b>Band:</b> 40m<br/><b>Mode:</b> SSB<br/><b>RST Sent:</b> 57<br/><b>RST Rcvd:</b> 55]]></description>
    <styleUrl>#contact</styleUrl>
    <Point>
      <coordinates>-86.120317,39.621317,0</coordinates>
    </Point>
  </Placemark>
  <Placemark>
    <name>WB8FIS</name>
    <description><![CDATA[<b>Date:</b> 2026-05-20<br/><b>Time:</b> 14:30Z<br/><b>Band:</b> 40m<br/><b>Mode:</b> SSB<br/><b>RST Sent:</b> 59<br/><b>RST Rcvd:</b> 55<br/><b>POTA/SOTA:</b> US-3321]]></description>
    <styleUrl>#contact</styleUrl>
    <Point>
      <coordinates>-83.245067,42.783867,0</coordinates>
    </Point>
  </Placemark>
  <Placemark>
    <name>KC1ZBU</name>
    <description><![CDATA[<b>Date:</b> 2026-05-20<br/><b>Time:</b> 14:37Z<br/><b>Band:</b> 20m<br/><b>Mode:</b> SSB<br/><b>RST Sent:</b> 55<br/><b>RST Rcvd:</b> 53<br/><b>POTA/SOTA:</b> US-11495]]></description>
    <styleUrl>#contact</styleUrl>
    <Point>
      <coordinates>-71.2868,41.516867,0</coordinates>
    </Point>
  </Placemark>
  <Placemark>
    <name>K9OB</name>
    <description><![CDATA[<b>Date:</b> 2026-05-20<br/><b>Time:</b> 14:44Z<br/><b>Band:</b> 40m<br/><b>Mode:</b> SSB<br/><b>RST Sent:</b> 59<br/><b>RST Rcvd:</b> 58]]></description>
    <styleUrl>#contact</styleUrl>
    <Point>
      <coordinates>-86.1337,42.801567,0</coordinates>
    </Point>
  </Placemark>
  <Placemark>
    <name>K8WAG</name>
    <description><![CDATA[<b>Date:</b> 2026-05-20<br/><b>Time:</b> 14:45Z<br/><b>Band:</b> 40m<br/><b>Mode:</b> SSB<br/><b>RST Sent:</b> 59<br/><b>RST Rcvd:</b> 55]]></description>
    <styleUrl>#contact</styleUrl>
    <Point>
      <coordinates>-81.0111,40.666217,0</coordinates>
    </Point>
  </Placemark>
  <Placemark>
    <name>KE5ABB</name>
    <description><![CDATA[<b>Date:</b> 2026-05-20<br/><b>Time:</b> 14:46Z<br/><b>Band:</b> 40m<br/><b>Mode:</b> SSB<br/><b>RST Sent:</b> 52<br/><b>RST Rcvd:</b> 52<br/><b>POTA/SOTA:</b> US-1356]]></description>
    <styleUrl>#contact</styleUrl>
    <Point>
      <coordinates>-79.218067,36.10415,0</coordinates>
    </Point>
  </Placemark>
  <Placemark>
    <name>N3MWS</name>
    <description><![CDATA[<b>Date:</b> 2026-05-20<br/><b>Time:</b> 14:47Z<br/><b>Band:</b> 40m<br/><b>Mode:</b> SSB<br/><b>RST Sent:</b> 59<br/><b>RST Rcvd:</b> 55]]></description>
    <styleUrl>#contact</styleUrl>
    <Point>
      <coordinates>-79.145283,41.861733,0</coordinates>
    </Point>
  </Placemark>
  <Placemark>
    <name>AD8KB</name>
    <description><![CDATA[<b>Date:</b> 2026-05-20<br/><b>Time:</b> 14:47Z<br/><b>Band:</b> 40m<br/><b>Mode:</b> SSB<br/><b>RST Sent:</b> 55<br/><b>RST Rcvd:</b> 55]]></description>
    <styleUrl>#contact</styleUrl>
    <Point>
      <coordinates>-81.346583,40.8711,0</coordinates>
    </Point>
  </Placemark>
  <Placemark>
    <name>N3FMC</name>
    <description><![CDATA[<b>Date:</b> 2026-05-20<br/><b>Time:</b> 14:48Z<br/><b>Band:</b> 40m<br/><b>Mode:</b> SSB<br/><b>RST Sent:</b> 59<br/><b>RST Rcvd:</b> 57]]></description>
    <styleUrl>#contact</styleUrl>
    <Point>
      <coordinates>-75.846267,40.311667,0</coordinates>
    </Point>
  </Placemark>
  <Placemark>
    <name>W4WTS</name>
    <description><![CDATA[<b>Date:</b> 2026-05-20<br/><b>Time:</b> 14:59Z<br/><b>Band:</b> 40m<br/><b>Mode:</b> SSB<br/><b>RST Sent:</b> 59<br/><b>RST Rcvd:</b> 55]]></description>
    <styleUrl>#contact</styleUrl>
    <Point>
      <coordinates>-85.073583,35.183117,0</coordinates>
    </Point>
  </Placemark>
  <Placemark>
    <name>VE3SRW</name>
    <description><![CDATA[<b>Date:</b> 2026-05-20<br/><b>Time:</b> 14:59Z<br/><b>Band:</b> 40m<br/><b>Mode:</b> SSB<br/><b>RST Sent:</b> 57<br/><b>RST Rcvd:</b> 53]]></description>
    <styleUrl>#contact</styleUrl>
    <Point>
      <coordinates>-78.320967,44.339783,0</coordinates>
    </Point>
  </Placemark>
  <Placemark>
    <name>K8EN</name>
    <description><![CDATA[<b>Date:</b> 2026-05-20<br/><b>Time:</b> 14:51Z<br/><b>Band:</b> 40m<br/><b>Mode:</b> SSB<br/><b>RST Sent:</b> 59<br/><b>RST Rcvd:</b> 59]]></description>
    <styleUrl>#contact</styleUrl>
    <Point>
      <coordinates>-83.510017,42.811083,0</coordinates>
    </Point>
  </Placemark>
  <Placemark>
    <name>W3BAY</name>
    <description><![CDATA[<b>Date:</b> 2026-05-20<br/><b>Time:</b> 14:52Z<br/><b>Band:</b> 40m<br/><b>Mode:</b> SSB<br/><b>RST Sent:</b> 51<br/><b>RST Rcvd:</b> 51<br/><b>POTA/SOTA:</b> US-1595]]></description>
    <styleUrl>#contact</styleUrl>
    <Point>
      <coordinates>-76.4411,39.046133,0</coordinates>
    </Point>
  </Placemark>
  </Folder>

  <Folder><name>Lines</name>
  <Placemark>
    <name>Line to AC1RH</name>
    <styleUrl>#line</styleUrl>
    <LineString>
      <tessellate>1</tessellate>
      <coordinates>-83.13833333333334,42.47168333333333,0 -71.3359,42.9006,0</coordinates>
    </LineString>
  </Placemark>
  <Placemark>
    <name>Line to K3WD</name>
    <styleUrl>#line</styleUrl>
    <LineString>
      <tessellate>1</tessellate>
      <coordinates>-83.13833333333334,42.47168333333333,0 -77.655067,39.281333,0</coordinates>
    </LineString>
  </Placemark>
  <Placemark>
    <name>Line to K9ICP</name>
    <styleUrl>#line</styleUrl>
    <LineString>
      <tessellate>1</tessellate>
      <coordinates>-83.13833333333334,42.47168333333333,0 -86.120317,39.621317,0</coordinates>
    </LineString>
  </Placemark>
  <Placemark>
    <name>Line to WB8FIS</name>
    <styleUrl>#line</styleUrl>
    <LineString>
      <tessellate>1</tessellate>
      <coordinates>-83.13833333333334,42.47168333333333,0 -83.245067,42.783867,0</coordinates>
    </LineString>
  </Placemark>
  <Placemark>
    <name>Line to KC1ZBU</name>
    <styleUrl>#line</styleUrl>
    <LineString>
      <tessellate>1</tessellate>
      <coordinates>-83.13833333333334,42.47168333333333,0 -71.2868,41.516867,0</coordinates>
    </LineString>
  </Placemark>
  <Placemark>
    <name>Line to K9OB</name>
    <styleUrl>#line</styleUrl>
    <LineString>
      <tessellate>1</tessellate>
      <coordinates>-83.13833333333334,42.47168333333333,0 -86.1337,42.801567,0</coordinates>
    </LineString>
  </Placemark>
  <Placemark>
    <name>Line to K8WAG</name>
    <styleUrl>#line</styleUrl>
    <LineString>
      <tessellate>1</tessellate>
      <coordinates>-83.13833333333334,42.47168333333333,0 -81.0111,40.666217,0</coordinates>
    </LineString>
  </Placemark>
  <Placemark>
    <name>Line to KE5ABB</name>
    <styleUrl>#line</styleUrl>
    <LineString>
      <tessellate>1</tessellate>
      <coordinates>-83.13833333333334,42.47168333333333,0 -79.218067,36.10415,0</coordinates>
    </LineString>
  </Placemark>
  <Placemark>
    <name>Line to N3MWS</name>
    <styleUrl>#line</styleUrl>
    <LineString>
      <tessellate>1</tessellate>
      <coordinates>-83.13833333333334,42.47168333333333,0 -79.145283,41.861733,0</coordinates>
    </LineString>
  </Placemark>
  <Placemark>
    <name>Line to AD8KB</name>
    <styleUrl>#line</styleUrl>
    <LineString>
      <tessellate>1</tessellate>
      <coordinates>-83.13833333333334,42.47168333333333,0 -81.346583,40.8711,0</coordinates>
    </LineString>
  </Placemark>
  <Placemark>
    <name>Line to N3FMC</name>
    <styleUrl>#line</styleUrl>
    <LineString>
      <tessellate>1</tessellate>
      <coordinates>-83.13833333333334,42.47168333333333,0 -75.846267,40.311667,0</coordinates>
    </LineString>
  </Placemark>
  <Placemark>
    <name>Line to W4WTS</name>
    <styleUrl>#line</styleUrl>
    <LineString>
      <tessellate>1</tessellate>
      <coordinates>-83.13833333333334,42.47168333333333,0 -85.073583,35.183117,0</coordinates>
    </LineString>
  </Placemark>
  <Placemark>
    <name>Line to VE3SRW</name>
    <styleUrl>#line</styleUrl>
    <LineString>
      <tessellate>1</tessellate>
      <coordinates>-83.13833333333334,42.47168333333333,0 -78.320967,44.339783,0</coordinates>
    </LineString>
  </Placemark>
  <Placemark>
    <name>Line to K8EN</name>
    <styleUrl>#line</styleUrl>
    <LineString>
      <tessellate>1</tessellate>
      <coordinates>-83.13833333333334,42.47168333333333,0 -83.510017,42.811083,0</coordinates>
    </LineString>
  </Placemark>
  <Placemark>
    <name>Line to W3BAY</name>
    <styleUrl>#line</styleUrl>
    <LineString>
      <tessellate>1</tessellate>
      <coordinates>-83.13833333333334,42.47168333333333,0 -76.4411,39.046133,0</coordinates>
    </LineString>
  </Placemark>
  </Folder>
</Document>
</kml>
